[{"OBJECT_NAME":"ONEWEB-0574","OBJECT_ID":"2023-043T","EPOCH":"2026-03-09T13:48:57.505248","MEAN_MOTION":13.2182565,"ECCENTRICITY":0.0001436,"INCLINATION":87.9173,"RA_OF_ASC_NODE":263.8283,"ARG_OF_PERICENTER":91.5424,"MEAN_ANOMALY":268.5874,"EPHEMERIS_TYPE":0,"CLASSIFICATION_TYPE":"U","NORAD_CAT_ID":56063,"ELEMENT_SET_NO":999,"REV_AT_EPOCH":14511,"BSTAR":9.7251e-5,"MEAN_MOTION_DOT":5.3e-7,"MEAN_MOTION_DDOT":0},{"OBJECT_NAME":"SL-14 DEB","OBJECT_ID":"1991-056BE","EPOCH":"2026-03-09T08:04:22.819008","MEAN_MOTION":13.32972144,"ECCENTRICITY":0.01157745,"INCLINATION":82.5948,"RA_OF_ASC_NODE":184.2567,"ARG_OF_PERICENTER":229.3172,"MEAN_ANOMALY":129.7856,"EPHEMERIS_TYPE":0,"CLASSIFICATION_TYPE":"U","NORAD_CAT_ID":45316,"ELEMENT_SET_NO":999,"REV_AT_EPOCH":29374,"BSTAR":0.003511633,"MEAN_MOTION_DOT":1.793e-5,"MEAN_MOTION_DDOT":0}]
